[{"OBJECT_NAME":"FIREFLY-3","OBJECT_ID":"2025-009DF","EPOCH":"2026-03-09T21:54:06.056640","MEAN_MOTION":14.92832807,"ECCENTRICITY":0.00061356,"INCLINATION":97.7107,"RA_OF_ASC_NODE":149.1214,"ARG_OF_PERICENTER":126.9978,"MEAN_ANOMALY":233.1804,"EPHEMERIS_TYPE":0,"CLASSIFICATION_TYPE":"U","NORAD_CAT_ID":62710,"ELEMENT_SET_NO":999,"REV_AT_EPOCH":6252,"BSTAR":0.00029016679,"MEAN_MOTION_DOT":2.949e-5,"MEAN_MOTION_DDOT":0},{"OBJECT_NAME":"ICEYE-X54","OBJECT_ID":"2025-135AU","EPOCH":"2026-03-09T21:59:41.591040","MEAN_MOTION":14.93897113,"ECCENTRICITY":9.94e-5,"INCLINATION":97.759,"RA_OF_ASC_NODE":184.427,"ARG_OF_PERICENTER":275.8004,"MEAN_ANOMALY":84.3103,"EPHEMERIS_TYPE":0,"CLASSIFICATION_TYPE":"U","NORAD_CAT_ID":64570,"ELEMENT_SET_NO":999,"REV_AT_EPOCH":3907,"BSTAR":0.00047614283,"MEAN_MOTION_DOT":5.007e-5,"MEAN_MOTION_DDOT":0}]
